STARLINK-31662          
1 59584U 24076W   26068.24697533  .00007869  00000+0  29564-3 0  9999
2 59584  43.0010  11.6107 0001342 243.6709 116.4005 15.27527147106430
NUSAT-50 (NANCY ROMAN)  
1 60493U 24149AB  26068.80227738  .00012094  00000+0  42252-3 0  9994
2 60493  97.3817 150.7693 0002523 238.0469 122.0527 15.29713355 86930
